start=new Date('2022-09-04T00:00:00.000Z').valueOf();
sats=[{"ECCENTRICITY":"0.00011090","COUNTRY_CODE":"US","GP_ID":"211673485","TLE_LINE2":"2 53253  53.2176 198.6081 0001109  71.2304 357.4551 15.65692257  1307","TIME_SYSTEM":"UTC","MEAN_ELEMENT_THEORY":"SGP4","MEAN_ANOMALY":"357.4551","BSTAR":"-0.01135700000000","FILE":"3556957","REF_FRAME":"TEME","ELEMENT_SET_NO":"999","INCLINATION":"53.2176","REV_AT_EPOCH":"130","EPHEMERIS_TYPE":"0","NORAD_CAT_ID":"53253","TLE_LINE1":"1 53253U 22086M   22246.91667824 -.01048616  00000-0 -11357-1 0  9991","RCS_SIZE":"LARGE","OBJECT_TYPE":"PAYLOAD","SITE":"AFETR","DECAY_DATE":null,"MEAN_MOTION_DDOT":"0.0000000000000","EPOCH":"2022-09-03T22:00:00.999936","CENTER_NAME":"EARTH","ARG_OF_PERICENTER":"71.2304","SEMIMAJOR_AXIS":"6749.386","MEAN_MOTION_DOT":"-0.01048616","MEAN_MOTION":"15.65692257","LAUNCH_DATE":"2022-07-24","APOAPSIS":"371.999","CLASSIFICATION_TYPE":"U","OBJECT_ID":"2022-086M","OBJECT_NAME":"STARLINK-4133","PERIAPSIS":"370.502","RA_OF_ASC_NODE":"198.6081","PERIOD":"91.972"},{"PERIAPSIS":"370.526","RA_OF_ASC_NODE":"198.6001","CLASSIFICATION_TYPE":"U","APOAPSIS":"372.054","OBJECT_NAME":"STARLINK-4134","OBJECT_ID":"2022-086N","MEAN_MOTION":"15.65678452","LAUNCH_DATE":"2022-07-24","PERIOD":"91.973","MEAN_MOTION_DDOT":"0.0000000000000","OBJECT_TYPE":"PAYLOAD","SITE":"AFETR","DECAY_DATE":null,"RCS_SIZE":"LARGE","TLE_LINE1":"1 53254U 22086N   22246.91667824 -.01048595  00000-0 -11363-1 0  9995","SEMIMAJOR_AXIS":"6749.425","MEAN_MOTION_DOT":"-0.01048595","ARG_OF_PERICENTER":"66.7689","CENTER_NAME":"EARTH","EPOCH":"2022-09-03T22:00:00.999936","REV_AT_EPOCH":"130","ELEMENT_SET_NO":"999","INCLINATION":"53.2175","NORAD_CAT_ID":"53254","EPHEMERIS_TYPE":"0","TLE_LINE2":"2 53254  53.2175 198.6001 0001132  66.7689   0.5657 15.65678452  1304","COUNTRY_CODE":"US","GP_ID":"211674335","ECCENTRICITY":"0.00011320","REF_FRAME":"TEME","FILE":"3556957","BSTAR":"-0.01136300000000","TIME_SYSTEM":"UTC","MEAN_ANOMALY":"0.5657","MEAN_ELEMENT_THEORY":"SGP4"},{"NORAD_CAT_ID":"53255","EPHEMERIS_TYPE":"0","REV_AT_EPOCH":"130","ELEMENT_SET_NO":"999","INCLINATION":"53.2176","REF_FRAME":"TEME","MEAN_ELEMENT_THEORY":"SGP4","MEAN_ANOMALY":"353.8681","TIME_SYSTEM":"UTC","FILE":"3556957","BSTAR":"-0.01135000000000","GP_ID":"211673633","COUNTRY_CODE":"US","TLE_LINE2":"2 53255  53.2176 198.6157 0001090  76.1679 353.8681 15.65706056  1308","ECCENTRICITY":"0.00010900","PERIOD":"91.971","PERIAPSIS":"370.475","RA_OF_ASC_NODE":"198.6157","LAUNCH_DATE":"2022-07-24","MEAN_MOTION":"15.65706056","OBJECT_ID":"2022-086P","OBJECT_NAME":"STARLINK-4142","CLASSIFICATION_TYPE":"U","APOAPSIS":"371.947","ARG_OF_PERICENTER":"76.1679","MEAN_MOTION_DOT":"-0.01048554","SEMIMAJOR_AXIS":"6749.346","EPOCH":"2022-09-03T22:00:00.999936","CENTER_NAME":"EARTH","SITE":"AFETR","DECAY_DATE":null,"OBJECT_TYPE":"PAYLOAD","MEAN_MOTION_DDOT":"0.0000000000000","TLE_LINE1":"1 53255U 22086P   22246.91667824 -.01048554  00000-0 -11350-1 0  9997","RCS_SIZE":"LARGE"},{"ECCENTRICITY":"0.00010850","TLE_LINE2":"2 53256  53.2170 198.6127 0001085  78.7812 350.5673 15.65718760  1301","COUNTRY_CODE":"US","GP_ID":"211674187","FILE":"3556957","BSTAR":"-0.01162300000000","TIME_SYSTEM":"UTC","MEAN_ANOMALY":"350.5673","MEAN_ELEMENT_THEORY":"SGP4","REF_FRAME":"TEME","ELEMENT_SET_NO":"999","INCLINATION":"53.2170","REV_AT_EPOCH":"130","EPHEMERIS_TYPE":"0","NORAD_CAT_ID":"53256","TLE_LINE1":"1 53256U 22086Q   22246.91667824 -.01071648  00000-0 -11623-1 0  9991","RCS_SIZE":"LARGE","MEAN_MOTION_DDOT":"0.0000000000000","OBJECT_TYPE":"PAYLOAD","DECAY_DATE":null,"SITE":"AFETR","CENTER_NAME":"EARTH","EPOCH":"2022-09-03T22:00:00.999936","SEMIMAJOR_AXIS":"6749.309","MEAN_MOTION_DOT":"-0.01071648","ARG_OF_PERICENTER":"78.7812","CLASSIFICATION_TYPE":"U","APOAPSIS":"371.907","OBJECT_NAME":"STARLINK-4147","OBJECT_ID":"2022-086Q","MEAN_MOTION":"15.65718760","LAUNCH_DATE":"2022-07-24","PERIAPSIS":"370.442","RA_OF_ASC_NODE":"198.6127","PERIOD":"91.971"},{"RCS_SIZE":"LARGE","TLE_LINE1":"1 53257U 22086R   22246.91667824 -.01048539  00000-0 -11340-1 0  9991","DECAY_DATE":null,"SITE":"AFETR","OBJECT_TYPE":"PAYLOAD","MEAN_MOTION_DDOT":"0.0000000000000","EPOCH":"2022-09-03T22:00:00.999936","CENTER_NAME":"EARTH","ARG_OF_PERICENTER":"63.2945","MEAN_MOTION_DOT":"-0.01048539","SEMIMAJOR_AXIS":"6749.286","LAUNCH_DATE":"2022-07-24","MEAN_MOTION":"15.65726793","OBJECT_NAME":"STARLINK-4144","OBJECT_ID":"2022-086R","CLASSIFICATION_TYPE":"U","APOAPSIS":"371.937","PERIAPSIS":"370.366","RA_OF_ASC_NODE":"198.6269","PERIOD":"91.970","ECCENTRICITY":"0.00011640","GP_ID":"211673899","COUNTRY_CODE":"US","TLE_LINE2":"2 53257  53.2176 198.6269 0001164  63.2945   8.7668 15.65726793  1300","MEAN_ANOMALY":"8.7668","MEAN_ELEMENT_THEORY":"SGP4","TIME_SYSTEM":"UTC","FILE":"3556957","BSTAR":"-0.01134000000000","REF_FRAME":"TEME","ELEMENT_SET_NO":"999","INCLINATION":"53.2176","REV_AT_EPOCH":"130","EPHEMERIS_TYPE":"0","NORAD_CAT_ID":"53257"},{"ARG_OF_PERICENTER":"73.9226","SEMIMAJOR_AXIS":"6749.326","MEAN_MOTION_DOT":"-0.01048489","EPOCH":"2022-09-03T22:00:00.999936","CENTER_NAME":"EARTH","OBJECT_TYPE":"PAYLOAD","DECAY_DATE":null,"SITE":"AFETR","MEAN_MOTION_DDOT":"0.0000000000000","TLE_LINE1":"1 53258U 22086S   22246.91667824 -.01048489  00000-0 -11346-1 0  9992","RCS_SIZE":"LARGE","PERIOD":"91.971","RA_OF_ASC_NODE":"198.6190","PERIAPSIS":"370.449","MEAN_MOTION":"15.65712975","LAUNCH_DATE":"2022-07-24","APOAPSIS":"371.933","CLASSIFICATION_TYPE":"U","OBJECT_NAME":"STARLINK-4127","OBJECT_ID":"2022-086S","REF_FRAME":"TEME","TIME_SYSTEM":"UTC","MEAN_ANOMALY":"356.7886","MEAN_ELEMENT_THEORY":"SGP4","FILE":"3556957","BSTAR":"-0.01134600000000","COUNTRY_CODE":"US","GP_ID":"211674513","TLE_LINE2":"2 53258  53.2176 198.6190 0001100  73.9226 356.7886 15.65712975  1309","ECCENTRICITY":"0.00011000","NORAD_CAT_ID":"53258","EPHEMERIS_TYPE":"0","REV_AT_EPOCH":"130","ELEMENT_SET_NO":"999","INCLINATION":"53.2176"},{"ELEMENT_SET_NO":"999","INCLINATION":"53.2176","REV_AT_EPOCH":"130","EPHEMERIS_TYPE":"0","NORAD_CAT_ID":"53259","ECCENTRICITY":"0.00011140","COUNTRY_CODE":"US","GP_ID":"211674047","TLE_LINE2":"2 53259  53.2176 198.6294 0001114  71.6349   1.1015 15.65733641  1309","TIME_SYSTEM":"UTC","MEAN_ANOMALY":"1.1015","MEAN_ELEMENT_THEORY":"SGP4","BSTAR":"-0.01133600000000","FILE":"3556957","REF_FRAME":"TEME","MEAN_MOTION":"15.65733641","LAUNCH_DATE":"2022-07-24","APOAPSIS":"371.884","CLASSIFICATION_TYPE":"U","OBJECT_ID":"2022-086T","OBJECT_NAME":"STARLINK-4140","PERIAPSIS":"370.380","RA_OF_ASC_NODE":"198.6294","PERIOD":"91.970","RCS_SIZE":"LARGE","TLE_LINE1":"1 53259U 22086T   22246.91667824 -.01048451  00000-0 -11336-1 0  9991","OBJECT_TYPE":"PAYLOAD","SITE":"AFETR","DECAY_DATE":null,"MEAN_MOTION_DDOT":"0.0000000000000","EPOCH":"2022-09-03T22:00:00.999936","CENTER_NAME":"EARTH","ARG_OF_PERICENTER":"71.6349","SEMIMAJOR_AXIS":"6749.267","MEAN_MOTION_DOT":"-0.01048451"},{"ECCENTRICITY":"0.00010910","TLE_LINE2":"2 53260  53.2176 198.6228 0001091  76.5560 354.8302 15.65719873  1309","COUNTRY_CODE":"US","GP_ID":"211673773","BSTAR":"-0.01134300000000","FILE":"3556957","TIME_SYSTEM":"UTC","MEAN_ANOMALY":"354.8302","MEAN_ELEMENT_THEORY":"SGP4","REF_FRAME":"TEME","INCLINATION":"53.2176","ELEMENT_SET_NO":"999","REV_AT_EPOCH":"130","EPHEMERIS_TYPE":"0","NORAD_CAT_ID":"53260","TLE_LINE1":"1 53260U 22086U   22246.91667824 -.01048500  00000-0 -11343-1 0  9996","RCS_SIZE":"LARGE","MEAN_MOTION_DDOT":"0.0000000000000","OBJECT_TYPE":"PAYLOAD","SITE":"AFETR","DECAY_DATE":null,"CENTER_NAME":"EARTH","EPOCH":"2022-09-03T22:00:00.999936","SEMIMAJOR_AXIS":"6749.306","MEAN_MOTION_DOT":"-0.01048500","ARG_OF_PERICENTER":"76.5560","APOAPSIS":"371.908","CLASSIFICATION_TYPE":"U","OBJECT_ID":"2022-086U","OBJECT_NAME":"STARLINK-4136","MEAN_MOTION":"15.65719873","LAUNCH_DATE":"2022-07-24","PERIAPSIS":"370.435","RA_OF_ASC_NODE":"198.6228","PERIOD":"91.970"},{"LAUNCH_DATE":"2022-07-24","MEAN_MOTION":"15.65795409","OBJECT_ID":"2022-086V","OBJECT_NAME":"STARLINK-4062","CLASSIFICATION_TYPE":"U","APOAPSIS":"371.738","RA_OF_ASC_NODE":"198.6368","PERIAPSIS":"370.171","PERIOD":"91.966","TLE_LINE1":"1 53261U 22086V   22246.91667824 -.01117930  00000-0 -11931-1 0  9994","RCS_SIZE":"LARGE","DECAY_DATE":null,"SITE":"AFETR","OBJECT_TYPE":"PAYLOAD","MEAN_MOTION_DDOT":"0.0000000000000","EPOCH":"2022-09-03T22:00:00.999936","CENTER_NAME":"EARTH","ARG_OF_PERICENTER":"62.3255","MEAN_MOTION_DOT":"-0.01117930","SEMIMAJOR_AXIS":"6749.089","ELEMENT_SET_NO":"999","INCLINATION":"53.2171","REV_AT_EPOCH":"130","EPHEMERIS_TYPE":"0","NORAD_CAT_ID":"53261","ECCENTRICITY":"0.00011610","GP_ID":"211673486","COUNTRY_CODE":"US","TLE_LINE2":"2 53261  53.2171 198.6368 0001161  62.3255  12.4135 15.65795409  1302","MEAN_ELEMENT_THEORY":"SGP4","MEAN_ANOMALY":"12.4135","TIME_SYSTEM":"UTC","BSTAR":"-0.01193100000000","FILE":"3556957","REF_FRAME":"TEME"},{"ECCENTRICITY":"0.00011860","GP_ID":"211674336","COUNTRY_CODE":"US","TLE_LINE2":"2 53262  53.2176 198.6289 0001186  60.9873  12.4242 15.65740372  1305","MEAN_ANOMALY":"12.4242","MEAN_ELEMENT_THEORY":"SGP4","TIME_SYSTEM":"UTC","BSTAR":"-0.01133300000000","FILE":"3556957","REF_FRAME":"TEME","ELEMENT_SET_NO":"999","INCLINATION":"53.2176","REV_AT_EPOCH":"130","EPHEMERIS_TYPE":"0","NORAD_CAT_ID":"53262","TLE_LINE1":"1 53262U 22086W   22246.91667824 -.01048482  00000-0 -11333-1 0  9996","RCS_SIZE":"LARGE","DECAY_DATE":null,"SITE":"AFETR","OBJECT_TYPE":"PAYLOAD","MEAN_MOTION_DDOT":"0.0000000000000","EPOCH":"2022-09-03T22:00:00.999936","CENTER_NAME":"EARTH","ARG_OF_PERICENTER":"60.9873","MEAN_MOTION_DOT":"-0.01048482","SEMIMAJOR_AXIS":"6749.247","LAUNCH_DATE":"2022-07-24","MEAN_MOTION":"15.65740372","OBJECT_NAME":"STARLINK-4085","OBJECT_ID":"2022-086W","APOAPSIS":"371.913","CLASSIFICATION_TYPE":"U","PERIAPSIS":"370.312","RA_OF_ASC_NODE":"198.6289","PERIOD":"91.969"}];
